{"type":"FeatureCollection", "features": [
{"type":"Feature","geometry":{"type":"MultiPolygon","coordinates":[[[[131.66,32.477],[131.801,32.681],[131.929,32.778],[131.982,32.889],[131.903,32.983],[131.929,33.068],[131.81,33.128],[131.872,33.2],[131.711,33.27],[131.51,33.273],[131.697,33.406],[131.737,33.485],[131.73,33.58],[131.667,33.667],[131.521,33.676],[131.418,33.582],[131.081,33.635],[131.01,33.746],[130.993,33.898],[130.914,33.891],[130.828,33.94],[130.684,33.934],[130.548,33.881],[130.454,33.808],[130.468,33.744],[130.386,33.677],[130.391,33.605],[130.29,33.574],[130.16,33.63],[130.156,33.525],[130.055,33.495],[129.855,33.533],[129.787,33.455],[129.869,33.397],[129.807,33.348],[129.58,33.371],[129.552,33.226],[129.729,33.122],[129.746,33.066],[129.881,33.063],[129.946,33.016],[129.931,32.929],[129.986,32.863],[129.794,32.875],[129.823,32.98],[129.682,33.094],[129.632,32.979],[129.698,32.84],[129.771,32.814],[129.895,32.663],[129.955,32.745],[130.094,32.795],[130.178,32.793],[130.21,32.733],[130.129,32.641],[130.181,32.592],[130.342,32.667],[130.376,32.748],[130.339,32.857],[130.244,32.875],[130.222,32.975],[130.132,33.102],[130.219,33.159],[130.365,33.14],[130.422,33.083],[130.433,32.942],[130.593,32.816],[130.577,32.698],[130.641,32.607],[130.562,32.427],[130.477,32.349],[130.332,32.129],[130.18,32.093],[130.173,32.017],[130.22,31.93],[130.171,31.79],[130.336,31.626],[130.293,31.445],[130.193,31.315],[130.222,31.246],[130.451,31.249],[130.522,31.169],[130.64,31.186],[130.662,31.259],[130.573,31.315],[130.521,31.432],[130.529,31.513],[130.613,31.682],[130.686,31.726],[130.805,31.687],[130.799,31.612],[130.638,31.623],[130.696,31.546],[130.703,31.459],[130.795,31.344],[130.725,31.047],[130.924,31.113],[131.008,31.221],[131.06,31.225],[131.104,31.329],[131.014,31.363],[131.072,31.45],[131.213,31.455],[131.266,31.381],[131.345,31.395],[131.451,31.651],[131.475,31.762],[131.447,31.877],[131.66,32.477]]],[[[134.69,33.828],[134.696,33.952],[134.6,34.009],[134.628,34.178],[134.594,34.232],[134.44,34.208],[134.258,34.294],[134.153,34.386],[134.081,34.348],[133.947,34.376],[133.673,34.223],[133.621,34.046],[133.511,33.965],[133.323,33.991],[133.127,33.933],[132.942,34.141],[132.919,34.068],[132.77,33.996],[132.712,33.905],[132.677,33.716],[132.501,33.625],[132.381,33.466],[132.42,33.304],[132.537,33.243],[132.452,33.053],[132.472,32.934],[132.709,32.909],[132.623,32.799],[132.812,32.74],[132.915,32.778],[133.018,33.024],[133.097,33.048],[133.253,33.219],[133.269,33.347],[133.415,33.393],[133.466,33.454],[133.608,33.516],[133.739,33.538],[133.925,33.494],[134.19,33.248],[134.215,33.377],[134.273,33.508],[134.389,33.624],[134.652,33.786],[134.69,33.828]]],[[[133.422,34.445],[133.47,34.424],[133.7,34.526],[133.822,34.462],[133.936,34.451],[133.983,34.529],[134.177,34.614],[134.248,34.718],[134.327,34.704],[134.519,34.76],[134.744,34.767],[134.96,34.644],[135.046,34.625],[135.211,34.655],[135.341,34.709],[135.404,34.659],[135.414,34.558],[135.32,34.429],[135.209,34.342],[135.105,34.318],[135.187,34.136],[135.094,34.068],[135.065,33.886],[135.153,33.876],[135.196,33.815],[135.392,33.714],[135.328,33.671],[135.445,33.551],[135.638,33.495],[135.766,33.482],[135.885,33.529],[135.96,33.593],[136.069,33.847],[136.105,33.891],[136.273,33.971],[136.244,34.064],[136.299,34.154],[136.523,34.273],[136.593,34.263],[136.846,34.308],[136.916,34.434],[136.633,34.591],[136.568,34.596],[136.52,34.681],[136.535,34.766],[136.616,34.854],[136.659,34.984],[136.726,35.027],[136.88,35.044],[136.823,34.955],[136.828,34.872],[136.916,34.776],[137.298,34.797],[137.309,34.726],[137.121,34.638],[137.141,34.589],[137.428,34.668],[137.684,34.671],[137.792,34.639],[137.893,34.668],[138.047,34.655],[138.19,34.601],[138.216,34.712],[138.341,34.826],[138.367,34.917],[138.514,34.98],[138.554,35.096],[138.696,35.139],[138.803,35.122],[138.744,34.729],[138.835,34.596],[138.941,34.661],[139.088,34.842],[139.141,34.871],[139.087,34.997],[139.088,35.11],[139.146,35.235],[139.233,35.285],[139.415,35.319],[139.527,35.302],[139.661,35.178],[139.734,35.265],[139.648,35.298],[139.657,35.377],[139.779,35.502],[139.807,35.638],[139.897,35.614],[139.95,35.673],[140.08,35.604],[140.006,35.473],[139.9,35.423],[139.824,35.328],[139.825,35.199],[139.868,35.013],[139.779,34.954],[139.843,34.9],[139.926,34.907],[139.991,35.021],[140.135,35.123],[140.321,35.13],[140.394,35.197],[140.413,35.301],[140.386,35.381],[140.483,35.566],[140.661,35.689],[140.842,35.742],[140.646,36.013],[140.578,36.161],[140.564,36.283],[140.617,36.338],[140.624,36.506],[140.694,36.618],[140.804,36.886],[140.96,36.966],[141.008,37.134],[141.042,37.377],[141.022,37.727],[140.933,37.889],[140.926,38.049],[140.967,38.17],[141.098,38.372],[141.333,38.409],[141.458,38.331],[141.471,38.436],[141.548,38.519],[141.467,38.57],[141.573,38.719],[141.531,38.781],[141.637,38.891],[141.638,38.985],[141.806,39.029],[141.909,39.11],[141.905,39.33],[141.971,39.443],[142.069,39.54],[141.978,39.648],[142.009,39.753],[141.95,39.997],[141.855,40.055],[141.877,40.139],[141.744,40.384],[141.576,40.542],[141.52,40.538],[141.437,40.67],[141.406,40.817],[141.391,41.161],[141.457,41.377],[141.276,41.353],[141.108,41.464],[140.907,41.501],[140.837,41.418],[140.766,41.196],[140.798,41.129],[140.978,41.196],[141.058,41.183],[141.206,41.265],[141.27,41.185],[141.236,41.016],[141.185,40.911],[141.111,40.873],[140.975,40.938],[140.871,40.915],[140.799,40.839],[140.673,40.896],[140.632,41.093],[140.643,41.171],[140.549,41.226],[140.484,41.183],[140.333,41.237],[140.3,41.111],[140.325,41.027],[140.271,40.812],[140.108,40.744],[140.046,40.768],[139.86,40.609],[139.943,40.545],[139.946,40.419],[140.024,40.355],[139.978,40.125],[139.904,40.018],[139.822,39.961],[139.698,39.989],[139.76,39.858],[139.877,39.893],[140.028,39.825],[140.059,39.727],[140.049,39.505],[139.995,39.327],[139.932,39.287],[139.892,39.133],[139.774,38.817],[139.599,38.648],[139.462,38.375],[139.432,38.169],[139.305,38.042],[139.216,37.99],[139.06,37.946],[138.858,37.828],[138.766,37.635],[138.551,37.378],[138.438,37.322],[138.245,37.184],[138.098,37.171],[137.897,37.058],[137.427,36.922],[137.384,36.8],[137.333,36.763],[137.157,36.761],[137.006,36.836],[137.054,36.967],[137.054,37.08],[136.875,37.07],[136.93,37.222],[137.014,37.185],[137.109,37.283],[137.23,37.292],[137.254,37.429],[137.351,37.446],[137.296,37.531],[137.114,37.488],[136.935,37.399],[136.749,37.358],[136.67,37.15],[136.768,36.981],[136.761,36.871],[136.64,36.663],[136.43,36.433],[136.135,36.225],[135.957,35.973],[135.993,35.885],[136.099,35.776],[135.956,35.728],[135.982,35.644],[135.855,35.579],[135.706,35.562],[135.645,35.48],[135.479,35.523],[135.452,35.572],[135.262,35.558],[135.242,35.623],[135.304,35.689],[135.227,35.772],[135.084,35.739],[134.927,35.641],[134.798,35.666],[134.537,35.672],[134.294,35.586],[134.238,35.547],[134.035,35.519],[133.731,35.503],[133.58,35.534],[133.417,35.457],[133.265,35.496],[133.239,35.564],[133.105,35.598],[132.97,35.517],[132.865,35.511],[132.635,35.441],[132.671,35.355],[132.639,35.295],[132.532,35.258],[132.408,35.175],[132.317,35.062],[132.063,34.907],[131.874,34.759],[131.858,34.715],[131.656,34.654],[131.597,34.66],[131.521,34.552],[131.455,34.519],[131.414,34.424],[131.236,34.382],[131.075,34.425],[130.927,34.349],[130.872,34.279],[130.923,34.184],[130.862,34.113],[130.913,34.053],[130.932,33.945],[131.036,34.048],[131.272,33.927],[131.356,33.989],[131.483,34.032],[131.741,34.056],[132.058,33.895],[132.213,33.99],[132.202,34.109],[132.223,34.239],[132.383,34.366],[132.497,34.362],[132.56,34.218],[132.656,34.199],[132.778,34.243],[132.836,34.311],[133.077,34.317],[133.166,34.292],[133.247,34.426],[133.341,34.348],[133.422,34.445]]],[[[145.767,43.387],[145.676,43.382],[145.468,43.253],[145.322,43.276],[145.312,43.367],[145.195,43.621],[145.075,43.754],[145.122,43.917],[145.26,44.069],[145.35,44.212],[145.341,44.346],[145.202,44.206],[145.049,44.122],[144.831,43.942],[144.74,43.915],[144.43,43.943],[144.319,43.991],[144.215,44.111],[143.999,44.134],[143.93,44.099],[143.783,44.101],[143.68,44.182],[143.405,44.317],[143.351,44.381],[143.118,44.497],[142.981,44.586],[142.631,44.884],[142.539,45.018],[142.221,45.3],[142.057,45.402],[141.96,45.51],[141.823,45.423],[141.692,45.402],[141.584,45.251],[141.586,45.164],[141.722,44.955],[141.783,44.765],[141.792,44.597],[141.747,44.424],[141.655,44.277],[141.67,44.067],[141.641,43.938],[141.528,43.841],[141.385,43.791],[141.337,43.713],[141.391,43.579],[141.371,43.497],[141.44,43.362],[141.371,43.251],[141.169,43.141],[141.022,43.175],[140.988,43.227],[140.81,43.192],[140.487,43.372],[140.36,43.325],[140.338,43.211],[140.439,43.134],[140.527,43.015],[140.377,42.894],[140.261,42.761],[140.2,42.814],[140.054,42.694],[139.877,42.663],[139.833,42.589],[139.85,42.469],[139.768,42.311],[139.787,42.247],[139.928,42.139],[140.028,42.106],[140.145,41.983],[140.13,41.823],[140.02,41.697],[139.984,41.56],[140.038,41.443],[140.209,41.401],[140.275,41.482],[140.401,41.513],[140.453,41.681],[140.604,41.736],[140.642,41.815],[140.96,41.722],[141.043,41.724],[141.183,41.818],[140.974,41.914],[140.714,42.133],[140.549,42.106],[140.292,42.26],[140.289,42.35],[140.381,42.505],[140.526,42.581],[140.734,42.564],[141.017,42.316],[141.092,42.392],[141.428,42.564],[141.55,42.601],[141.726,42.617],[141.926,42.559],[142.063,42.471],[142.168,42.46],[142.281,42.367],[142.46,42.271],[142.758,42.158],[142.96,42.105],[143.253,41.942],[143.338,42.15],[143.349,42.319],[143.448,42.455],[143.639,42.661],[143.886,42.844],[144.042,42.927],[144.323,43.003],[144.496,42.933],[144.599,42.949],[144.742,42.924],[144.758,43.019],[145,42.986],[145.099,43.045],[145.125,43.12],[145.303,43.173],[145.517,43.175],[145.629,43.31],[145.76,43.337],[145.767,43.387]]],[[[123.815,24.392],[123.683,24.285],[123.873,24.258],[123.936,24.341],[123.815,24.392]]],[[[124.329,24.584],[124.143,24.385],[124.242,24.364],[124.274,24.488],[124.329,24.584]]],[[[125.387,24.782],[125.275,24.856],[125.259,24.733],[125.384,24.727],[125.387,24.782]]],[[[128.338,26.797],[128.226,26.801],[128.015,26.635],[127.965,26.697],[127.886,26.62],[127.938,26.532],[127.731,26.44],[127.742,26.321],[127.636,26.191],[127.652,26.084],[127.797,26.14],[127.778,26.233],[127.94,26.448],[128.172,26.623],[128.243,26.633],[128.338,26.797]]],[[[128.989,27.811],[128.966,27.894],[128.895,27.891],[128.895,27.728],[129.024,27.757],[128.989,27.811]]],[[[129.708,28.462],[129.688,28.509],[129.4,28.372],[129.228,28.305],[129.242,28.214],[129.371,28.167],[129.42,28.25],[129.554,28.328],[129.708,28.462]]],[[[130.675,30.375],[130.499,30.468],[130.386,30.34],[130.438,30.239],[130.577,30.236],[130.647,30.291],[130.675,30.375]]],[[[131.052,30.84],[130.939,30.672],[130.93,30.541],[130.851,30.47],[130.886,30.344],[130.978,30.4],[130.965,30.456],[131.036,30.557],[131.079,30.699],[131.052,30.84]]],[[[130.41,32.512],[130.363,32.527],[130.219,32.456],[130.242,32.395],[130.359,32.413],[130.41,32.512]]],[[[130.16,32.546],[130.033,32.522],[129.975,32.355],[130.017,32.293],[130.012,32.191],[130.203,32.339],[130.199,32.48],[130.16,32.546]]],[[[128.878,32.674],[128.842,32.759],[128.642,32.761],[128.663,32.602],[128.878,32.674]]],[[[129.556,33.411],[129.343,33.18],[129.447,33.199],[129.562,33.366],[129.556,33.411]]],[[[129.776,33.773],[129.767,33.845],[129.687,33.86],[129.657,33.743],[129.776,33.773]]],[[[129.313,34.28],[129.199,34.316],[129.17,34.147],[129.277,34.129],[129.313,34.28]]],[[[135.003,34.608],[134.799,34.447],[134.721,34.33],[134.657,34.288],[134.729,34.191],[134.958,34.27],[134.903,34.419],[135.03,34.579],[135.003,34.608]]],[[[129.453,34.619],[129.418,34.685],[129.323,34.648],[129.272,34.376],[129.362,34.405],[129.446,34.515],[129.453,34.619]]],[[[133.367,36.274],[133.292,36.342],[133.209,36.297],[133.188,36.216],[133.326,36.158],[133.367,36.274]]],[[[138.459,38.07],[138.519,38.307],[138.31,38.168],[138.233,38.008],[138.343,37.967],[138.288,37.906],[138.265,37.798],[138.487,37.892],[138.575,38.035],[138.459,38.07]]],[[[139.549,42.243],[139.414,42.173],[139.509,42.101],[139.549,42.243]]],[[[141.327,45.172],[141.203,45.249],[141.15,45.147],[141.235,45.102],[141.327,45.172]]],[[[134.367,34.554],[134.204,34.512],[134.262,34.421],[134.347,34.431],[134.367,34.554]]]]},"properties":{"featurecla":"Admin-0 country","scalerank":0,"LABELRANK":2,"SOVEREIGNT":"Japan","SOV_A3":"JPN","ADM0_DIF":0,"LEVEL":2,"TYPE":"Sovereign country","TLC":"1","ADMIN":"Japan","ADM0_A3":"JPN","GEOU_DIF":0,"GEOUNIT":"Japan","GU_A3":"JPN","SU_DIF":0,"SUBUNIT":"Japan","SU_A3":"JPN","BRK_DIFF":0,"NAME":"Japan","NAME_LONG":"Japan","BRK_A3":"JPN","BRK_NAME":"Japan","BRK_GROUP":"","ABBREV":"Japan","POSTAL":"J","FORMAL_EN":"Japan","FORMAL_FR":"","NAME_CIAWF":"Japan","NOTE_ADM0":"","NOTE_BRK":"","NAME_SORT":"Japan","NAME_ALT":"","MAPCOLOR7":5,"MAPCOLOR8":3,"MAPCOLOR9":5,"MAPCOLOR13":4,"POP_EST":126264931,"POP_RANK":17,"POP_YEAR":2019,"GDP_MD":5081769,"GDP_YEAR":2019,"ECONOMY":"1. Developed region: G7","INCOME_GRP":"1. High income: OECD","FIPS_10":"JA","ISO_A2":"JP","ISO_A2_EH":"JP","ISO_A3":"JPN","ISO_A3_EH":"JPN","ISO_N3":"392","ISO_N3_EH":"392","UN_A3":"392","WB_A2":"JP","WB_A3":"JPN","WOE_ID":23424856,"WOE_ID_EH":23424856,"WOE_NOTE":"Exact WOE match as country","ADM0_ISO":"JPN","ADM0_DIFF":"","ADM0_TLC":"JPN","ADM0_A3_US":"JPN","ADM0_A3_FR":"JPN","ADM0_A3_RU":"JPN","ADM0_A3_ES":"JPN","ADM0_A3_CN":"JPN","ADM0_A3_TW":"JPN","ADM0_A3_IN":"JPN","ADM0_A3_NP":"JPN","ADM0_A3_PK":"JPN","ADM0_A3_DE":"JPN","ADM0_A3_GB":"JPN","ADM0_A3_BR":"JPN","ADM0_A3_IL":"JPN","ADM0_A3_PS":"JPN","ADM0_A3_SA":"JPN","ADM0_A3_EG":"JPN","ADM0_A3_MA":"JPN","ADM0_A3_PT":"JPN","ADM0_A3_AR":"JPN","ADM0_A3_JP":"JPN","ADM0_A3_KO":"JPN","ADM0_A3_VN":"JPN","ADM0_A3_TR":"JPN","ADM0_A3_ID":"JPN","ADM0_A3_PL":"JPN","ADM0_A3_GR":"JPN","ADM0_A3_IT":"JPN","ADM0_A3_NL":"JPN","ADM0_A3_SE":"JPN","ADM0_A3_BD":"JPN","ADM0_A3_UA":"JPN","ADM0_A3_UN":-99,"ADM0_A3_WB":-99,"CONTINENT":"Asia","REGION_UN":"Asia","SUBREGION":"Eastern Asia","REGION_WB":"East Asia & Pacific","NAME_LEN":5,"LONG_LEN":5,"ABBREV_LEN":5,"TINY":-99,"HOMEPART":1,"MIN_ZOOM":0,"MIN_LABEL":1.7,"MAX_LABEL":7,"LABEL_X":138.44217,"LABEL_Y":36.142538,"NE_ID":1159320937,"WIKIDATAID":"Q17","NAME_AR":"اليابان","NAME_BN":"জাপান","NAME_DE":"Japan","NAME_EN":"Japan","NAME_ES":"Japón","NAME_FA":"ژاپن","NAME_FR":"Japon","NAME_EL":"Ιαπωνία","NAME_HE":"יפן","NAME_HI":"जापान","NAME_HU":"Japán","NAME_ID":"Jepang","NAME_IT":"Giappone","NAME_JA":"日本","NAME_KO":"일본","NAME_NL":"Japan","NAME_PL":"Japonia","NAME_PT":"Japão","NAME_RU":"Япония","NAME_SV":"Japan","NAME_TR":"Japonya","NAME_UK":"Японія","NAME_UR":"جاپان","NAME_VI":"Nhật Bản","NAME_ZH":"日本","NAME_ZHT":"日本","FCLASS_ISO":"Admin-0 country","TLC_DIFF":"","FCLASS_TLC":"Admin-0 country","FCLASS_US":"","FCLASS_FR":"","FCLASS_RU":"","FCLASS_ES":"","FCLASS_CN":"","FCLASS_TW":"","FCLASS_IN":"","FCLASS_NP":"","FCLASS_PK":"","FCLASS_DE":"","FCLASS_GB":"","FCLASS_BR":"","FCLASS_IL":"","FCLASS_PS":"","FCLASS_SA":"","FCLASS_EG":"","FCLASS_MA":"","FCLASS_PT":"","FCLASS_AR":"","FCLASS_JP":"","FCLASS_KO":"","FCLASS_VN":"","FCLASS_TR":"","FCLASS_ID":"","FCLASS_PL":"","FCLASS_GR":"","FCLASS_IT":"","FCLASS_NL":"","FCLASS_SE":"","FCLASS_BD":"","FCLASS_UA":""}}
]}