{"type":"FeatureCollection","features":[{"type":"Feature","properties":{"stageNumber":1},"geometry":{"type":"LineString","coordinates":[[140.55432,40.27121],[140.55466,40.28554],[140.55639,40.28742],[140.55984,40.28683],[140.5574,40.29559],[140.56309,40.30478],[140.55715,40.30806],[140.55476,40.31282],[140.5546,40.31933],[140.55704,40.32544],[140.55251,40.33094],[140.55387,40.33988],[140.5529,40.34586],[140.54425,40.35817],[140.54678,40.36388],[140.54907,40.3873],[140.54784,40.39058],[140.539,40.39132],[140.53545,40.39341],[140.52724,40.39437],[140.5258,40.39616],[140.52948,40.3997],[140.53224,40.40821],[140.53964,40.40897],[140.53739,40.4121],[140.53911,40.41326],[140.536,40.41455],[140.53429,40.41746],[140.53914,40.42671],[140.54219,40.42926],[140.54474,40.43576],[140.54267,40.44233],[140.54356,40.44389],[140.54194,40.44593],[140.5437,40.44764],[140.54276,40.45104],[140.54401,40.45317],[140.54804,40.45419],[140.5462,40.45577],[140.54628,40.45849],[140.54919,40.46027],[140.54633,40.4611],[140.5485,40.4625],[140.54674,40.46447],[140.54982,40.46322],[140.54706,40.46605],[140.54935,40.4674],[140.54672,40.46941],[140.55808,40.48631],[140.55682,40.49239],[140.55833,40.49795],[140.55672,40.50004],[140.55877,40.50147],[140.56167,40.51012],[140.56082,40.51393],[140.56232,40.52131],[140.55064,40.52732],[140.54518,40.54265],[140.54549,40.55173],[140.54838,40.55185],[140.55157,40.56135],[140.55178,40.57617],[140.55662,40.58047],[140.56096,40.58123],[140.56216,40.59432],[140.56574,40.5984],[140.56646,40.60398],[140.57754,40.61231],[140.58615,40.6253],[140.58684,40.63582],[140.58793,40.63875],[140.59137,40.64083],[140.58811,40.64417],[140.5904,40.65059],[140.58879,40.65261],[140.59724,40.66044],[140.58696,40.67841],[140.5834,40.68773],[140.59289,40.70172],[140.59655,40.70337],[140.6,40.70845],[140.60104,40.71196],[140.59824,40.7144],[140.59902,40.71544],[140.60349,40.71873],[140.60727,40.71933],[140.59818,40.74092],[140.59416,40.74441],[140.59426,40.7467],[140.59768,40.74525],[140.61183,40.75115],[140.61792,40.75176],[140.61918,40.75291],[140.61779,40.75747],[140.61844,40.76251],[140.63774,40.78323],[140.65125,40.78007],[140.6589,40.78189],[140.6674,40.78047],[140.66818,40.78537],[140.66597,40.79008],[140.66745,40.79326],[140.676,40.80582],[140.68278,40.81083],[140.6859,40.8159],[140.70077,40.81655],[140.70883,40.82079],[140.71389,40.82193],[140.71776,40.82075],[140.72629,40.82378],[140.73082,40.82414],[140.7341,40.82169],[140.73625,40.82301],[140.74795,40.8216]]}},{"type":"Feature","properties":{"stageNumber":1},"geometry":{"type":"Point","coordinates":[140.55432,40.27121]}},{"type":"Feature","properties":{"stageNumber":1,"kind":"finish"},"geometry":{"type":"Point","coordinates":[140.74795,40.8216]}}]}